{
  "type": "FeatureCollection",
  "features": [
    {
      "type": "Feature",
      "properties": {
        "norad_id": 35987,
        "name": "COSMOS 2251 DEB",
        "group": "cosmos-2251-debris",
        "lat": 23.981769720036112,
        "lon": 140.3882301548367,
        "alt_km": 731.4058776105157,
        "timestamp": "2025-12-12T03:50:52.815349+00:00",
        "meta_object_name": "COSMOS 2251 DEB",
        "meta_object_id": "1993-036AWD",
        "meta_epoch": "2025-12-11T05:30:31.150080",
        "meta_mean_motion": 14.43110132,
        "meta_eccentricity": 0.00459363,
        "meta_inclination": 74.0001,
        "meta_ra_of_asc_node": 329.4532,
        "meta_arg_of_pericenter": 95.6067,
        "meta_mean_anomaly": 265.033,
        "meta_ephemeris_type": 0,
        "meta_classification_type": "U",
        "meta_norad_cat_id": 35987,
        "meta_element_set_no": 999,
        "meta_rev_at_epoch": 61043,
        "meta_bstar": 0.0014697546,
        "meta_mean_motion_dot": 4.973e-05,
        "meta_mean_motion_ddot": 0,
        "tle_line1": "1 35987U 93036AWD 25345.22952720  .00004973  00000+0  14698-2 0  9993",
        "tle_line2": "2 35987  74.0001 329.4532 0045936  95.6067 265.0330 14.43110132610437"
      },
      "geometry": {
        "type": "Point",
        "coordinates": [
          140.3882301548367,
          23.981769720036112
        ]
      }
    },
    {
      "type": "Feature",
      "properties": {
        "norad_id": 35989,
        "name": "COSMOS 2251 DEB",
        "group": "cosmos-2251-debris",
        "lat": -30.582775750162515,
        "lon": 114.63658429059156,
        "alt_km": 787.8984802599362,
        "timestamp": "2025-12-12T03:50:52.815358+00:00",
        "meta_object_name": "COSMOS 2251 DEB",
        "meta_object_id": "1993-036AWF",
        "meta_epoch": "2025-12-10T12:26:20.084064",
        "meta_mean_motion": 14.37097303,
        "meta_eccentricity": 0.0021915,
        "meta_inclination": 74.0383,
        "meta_ra_of_asc_node": 287.9166,
        "meta_arg_of_pericenter": 10.2145,
        "meta_mean_anomaly": 349.9449,
        "meta_ephemeris_type": 0,
        "meta_classification_type": "U",
        "meta_norad_cat_id": 35989,
        "meta_element_set_no": 999,
        "meta_rev_at_epoch": 87147,
        "meta_bstar": 0.00040745,
        "meta_mean_motion_dot": 1.187e-05,
        "meta_mean_motion_ddot": 0,
        "tle_line1": "1 35989U 93036AWF 25344.51828801  .00001187  00000+0  40745-3 0  9995",
        "tle_line2": "2 35989  74.0383 287.9166 0021915  10.2145 349.9449 14.37097303871477"
      },
      "geometry": {
        "type": "Point",
        "coordinates": [
          114.63658429059156,
          -30.582775750162515
        ]
      }
    },
    {
      "type": "Feature",
      "properties": {
        "norad_id": 35993,
        "name": "COSMOS 2251 DEB",
        "group": "cosmos-2251-debris",
        "lat": 29.994812573792704,
        "lon": -16.559608935452076,
        "alt_km": 688.0741144102803,
        "timestamp": "2025-12-12T03:50:52.815368+00:00",
        "meta_object_name": "COSMOS 2251 DEB",
        "meta_object_id": "1993-036AWK",
        "meta_epoch": "2025-12-09T16:42:55.834848",
        "meta_mean_motion": 14.65265094,
        "meta_eccentricity": 0.00290722,
        "meta_inclination": 74.0153,
        "meta_ra_of_asc_node": 338.6616,
        "meta_arg_of_pericenter": 169.2926,
        "meta_mean_anomaly": 190.8869,
        "meta_ephemeris_type": 0,
        "meta_classification_type": "U",
        "meta_norad_cat_id": 35993,
        "meta_element_set_no": 999,
        "meta_rev_at_epoch": 60398,
        "meta_bstar": 0.0011875212,
        "meta_mean_motion_dot": 6.416e-05,
        "meta_mean_motion_ddot": 0,
        "tle_line1": "1 35993U 93036AWK 25343.69647957  .00006416  00000+0  11875-2 0  9990",
        "tle_line2": "2 35993  74.0153 338.6616 0029072 169.2926 190.8869 14.65265094603988"
      },
      "geometry": {
        "type": "Point",
        "coordinates": [
          -16.559608935452076,
          29.994812573792704
        ]
      }
    },
    {
      "type": "Feature",
      "properties": {
        "norad_id": 35996,
        "name": "COSMOS 2251 DEB",
        "group": "cosmos-2251-debris",
        "lat": 24.332975766149556,
        "lon": 112.06407487041717,
        "alt_km": 598.2382155838059,
        "timestamp": "2025-12-12T03:50:52.815378+00:00",
        "meta_object_name": "COSMOS 2251 DEB",
        "meta_object_id": "1993-036AWN",
        "meta_epoch": "2025-12-11T00:41:09.521088",
        "meta_mean_motion": 15.0906793,
        "meta_eccentricity": 0.00884253,
        "meta_inclination": 74.0157,
        "meta_ra_of_asc_node": 106.9511,
        "meta_arg_of_pericenter": 198.4339,
        "meta_mean_anomaly": 161.3644,
        "meta_ephemeris_type": 0,
        "meta_classification_type": "U",
        "meta_norad_cat_id": 35996,
        "meta_element_set_no": 999,
        "meta_rev_at_epoch": 72300,
        "meta_bstar": 0.0011651351,
        "meta_mean_motion_dot": 0.00020245,
        "meta_mean_motion_ddot": 0,
        "tle_line1": "1 35996U 93036AWN 25345.02858242  .00020245  00000+0  11651-2 0  9991",
        "tle_line2": "2 35996  74.0157 106.9511 0088425 198.4339 161.3644 15.09067930723002"
      },
      "geometry": {
        "type": "Point",
        "coordinates": [
          112.06407487041717,
          24.332975766149556
        ]
      }
    },
    {
      "type": "Feature",
      "properties": {
        "norad_id": 35997,
        "name": "COSMOS 2251 DEB",
        "group": "cosmos-2251-debris",
        "lat": -53.92181869209436,
        "lon": 31.506171507139175,
        "alt_km": 718.021593607983,
        "timestamp": "2025-12-12T03:50:52.815388+00:00",
        "meta_object_name": "COSMOS 2251 DEB",
        "meta_object_id": "1993-036AWP",
        "meta_epoch": "2025-12-09T20:09:48.839904",
        "meta_mean_motion": 14.51292272,
        "meta_eccentricity": 0.00157365,
        "meta_inclination": 74.043,
        "meta_ra_of_asc_node": 192.7469,
        "meta_arg_of_pericenter": 268.5156,
        "meta_mean_anomaly": 91.4203,
        "meta_ephemeris_type": 0,
        "meta_classification_type": "U",
        "meta_norad_cat_id": 35997,
        "meta_element_set_no": 999,
        "meta_rev_at_epoch": 70842,
        "meta_bstar": 0.00093479882,
        "meta_mean_motion_dot": 3.7e-05,
        "meta_mean_motion_ddot": 0,
        "tle_line1": "1 35997U 93036AWP 25343.84014861  .00003700  00000+0  93480-3 0  9999",
        "tle_line2": "2 35997  74.0430 192.7469 0015736 268.5156  91.4203 14.51292272708421"
      },
      "geometry": {
        "type": "Point",
        "coordinates": [
          31.506171507139175,
          -53.92181869209436
        ]
      }
    },
    {
      "type": "Feature",
      "properties": {
        "norad_id": 36005,
        "name": "COSMOS 2251 DEB",
        "group": "cosmos-2251-debris",
        "lat": -72.41909192474989,
        "lon": 30.403448013033323,
        "alt_km": 709.8935301890106,
        "timestamp": "2025-12-12T03:50:52.815398+00:00",
        "meta_object_name": "COSMOS 2251 DEB",
        "meta_object_id": "1993-036AWX",
        "meta_epoch": "2025-12-10T17:23:32.272512",
        "meta_mean_motion": 14.47353034,
        "meta_eccentricity": 0.00619888,
        "meta_inclination": 74.0266,
        "meta_ra_of_asc_node": 97.7757,
        "meta_arg_of_pericenter": 235.5382,
        "meta_mean_anomaly": 123.9911,
        "meta_ephemeris_type": 0,
        "meta_classification_type": "U",
        "meta_norad_cat_id": 36005,
        "meta_element_set_no": 999,
        "meta_rev_at_epoch": 87555,
        "meta_bstar": 0.00035630183,
        "meta_mean_motion_dot": 1.308e-05,
        "meta_mean_motion_ddot": 0,
        "tle_line1": "1 36005U 93036AWX 25344.72467908  .00001308  00000+0  35630-3 0  9997",
        "tle_line2": "2 36005  74.0266  97.7757 0061988 235.5382 123.9911 14.47353034875553"
      },
      "geometry": {
        "type": "Point",
        "coordinates": [
          30.403448013033323,
          -72.41909192474989
        ]
      }
    },
    {
      "type": "Feature",
      "properties": {
        "norad_id": 36045,
        "name": "COSMOS 2251 DEB",
        "group": "cosmos-2251-debris",
        "lat": -67.65228975203102,
        "lon": 15.087993057326216,
        "alt_km": 697.4418000297537,
        "timestamp": "2025-12-12T03:50:52.815408+00:00",
        "meta_object_name": "COSMOS 2251 DEB",
        "meta_object_id": "1993-036AXG",
        "meta_epoch": "2025-12-11T13:29:08.197152",
        "meta_mean_motion": 14.69806465,
        "meta_eccentricity": 0.00482484,
        "meta_inclination": 73.7636,
        "meta_ra_of_asc_node": 61.4081,
        "meta_arg_of_pericenter": 75.4727,
        "meta_mean_anomaly": 285.1788,
        "meta_ephemeris_type": 0,
        "meta_classification_type": "U",
        "meta_norad_cat_id": 36045,
        "meta_element_set_no": 999,
        "meta_rev_at_epoch": 8371,
        "meta_bstar": 0.0031629771,
        "meta_mean_motion_dot": 0.00019249,
        "meta_mean_motion_ddot": 0,
        "tle_line1": "1 36045U 93036AXG 25345.56190043  .00019249  00000+0  31630-2 0  9995",
        "tle_line2": "2 36045  73.7636  61.4081 0048248  75.4727 285.1788 14.69806465 83717"
      },
      "geometry": {
        "type": "Point",
        "coordinates": [
          15.087993057326216,
          -67.65228975203102
        ]
      }
    }
  ]
}